[{"OBJECT_NAME":"OBJECT V","OBJECT_ID":"2023-085V","EPOCH":"2026-03-09T21:44:00.165408","MEAN_MOTION":15.30745852,"ECCENTRICITY":0.00069081,"INCLINATION":97.4843,"RA_OF_ASC_NODE":179.3833,"ARG_OF_PERICENTER":71.0503,"MEAN_ANOMALY":289.1485,"EPHEMERIS_TYPE":0,"CLASSIFICATION_TYPE":"U","NORAD_CAT_ID":57023,"ELEMENT_SET_NO":999,"REV_AT_EPOCH":15149,"BSTAR":0.00067780507,"MEAN_MOTION_DOT":0.00020109,"MEAN_MOTION_DDOT":0},{"OBJECT_NAME":"STARLINK-35069","OBJECT_ID":"2025-247D","EPOCH":"2026-03-09T20:12:53.138016","MEAN_MOTION":15.30209766,"ECCENTRICITY":0.00011635,"INCLINATION":53.1572,"RA_OF_ASC_NODE":190.9818,"ARG_OF_PERICENTER":60.6357,"MEAN_ANOMALY":299.476,"EPHEMERIS_TYPE":0,"CLASSIFICATION_TYPE":"U","NORAD_CAT_ID":66268,"ELEMENT_SET_NO":999,"REV_AT_EPOCH":2105,"BSTAR":0.0014253128,"MEAN_MOTION_DOT":0.00042107,"MEAN_MOTION_DDOT":0}]
